{"type": "FeatureCollection", "name": "Redline", "features": [{"type": "Feature", "properties": {"route": "WP1", "route_name": "", "route_id": "1955", "agency": "Redline", "agency_id": "OP71", "geometry_source": "GTFS stop sequence"}, "geometry": {"type": "LineString", "coordinates": [[-0.575704, 51.532404], [-0.5882, 51.529825], [-0.589738, 51.525303], [-0.589679, 51.520595], [-0.589889, 51.517541], [-0.591647, 51.515215], [-0.593176, 51.513889], [-0.592892, 51.511759]]}}, {"type": "Feature", "properties": {"route": "130", "route_name": "", "route_id": "102141", "agency": "Redline", "agency_id": "OP71", "geometry_source": "GTFS stop sequence"}, "geometry": {"type": "LineString", "coordinates": [[-0.756222, 51.631456], [-0.757808, 51.632633], [-0.760111, 51.633494], [-0.764539, 51.634853], [-0.772134, 51.637172], [-0.778584, 51.639127], [-0.785106, 51.641119], [-0.788217, 51.642068], [-0.79431, 51.643911], [-0.796532, 51.645166], [-0.799701, 51.652122], [-0.801808, 51.656649], [-0.811358, 51.666259], [-0.823175, 51.675046], [-0.827309, 51.679637], [-0.828735, 51.68323], [-0.83222, 51.689433], [-0.831313, 51.698802], [-0.834186, 51.71034], [-0.836994, 51.717669], [-0.832982, 51.721685], [-0.83192, 51.724138], [-0.827995, 51.7281], [-0.823078, 51.731225], [-0.819585, 51.734688], [-0.814829, 51.739361], [-0.805782, 51.74577], [-0.804517, 51.748689], [-0.808314, 51.753025], [-0.807254, 51.756413], [-0.798781, 51.759573], [-0.790162, 51.762749], [-0.785857, 51.766589], [-0.788938, 51.770046], [-0.789197, 51.774473], [-0.804368, 51.79601], [-0.805082, 51.798085], [-0.80668, 51.799603], [-0.808006, 51.802116], [-0.80997, 51.806875], [-0.808576, 51.809136], [-0.806915, 51.810485], [-0.808104, 51.81217], [-0.815259, 51.814256], [-0.813157, 51.814739]]}}, {"type": "Feature", "properties": {"route": "WP1", "route_name": "", "route_id": "1955", "agency": "Redline", "agency_id": "OP71", "geometry_source": "GTFS stop sequence"}, "geometry": {"type": "LineString", "coordinates": [[-0.592892, 51.511759], [-0.592101, 51.514881], [-0.590918, 51.51642], [-0.58983, 51.518502], [-0.58983, 51.521317], [-0.589801, 51.525618], [-0.579374, 51.53087], [-0.575704, 51.532404]]}}, {"type": "Feature", "properties": {"route": "130", "route_name": "", "route_id": "102141", "agency": "Redline", "agency_id": "OP71", "geometry_source": "GTFS stop sequence"}, "geometry": {"type": "LineString", "coordinates": [[-0.813157, 51.814739], [-0.80845, 51.812785], [-0.805982, 51.810125], [-0.808726, 51.80893], [-0.809823, 51.80583], [-0.807914, 51.802304], [-0.806089, 51.798932], [-0.805082, 51.798085], [-0.803385, 51.79516], [-0.7887, 51.77409], [-0.788772, 51.770314], [-0.78537, 51.766377], [-0.790925, 51.762388], [-0.798623, 51.759544], [-0.806948, 51.756491], [-0.808184, 51.753015], [-0.804397, 51.749398], [-0.805353, 51.746108], [-0.81645, 51.738298], [-0.81986, 51.734142], [-0.82317, 51.731037], [-0.828042, 51.727984], [-0.83192, 51.724138], [-0.833117, 51.721515], [-0.836632, 51.717099], [-0.833956, 51.710257], [-0.831344, 51.698182], [-0.831759, 51.688817], [-0.828651, 51.682528], [-0.826838, 51.679372], [-0.822674, 51.674861], [-0.809904, 51.664913], [-0.801537, 51.656502], [-0.799637, 51.652346], [-0.794121, 51.643972], [-0.788516, 51.64226], [-0.785247, 51.641282], [-0.781477, 51.640128], [-0.778409, 51.639215], [-0.777133, 51.638815], [-0.770654, 51.636868], [-0.765997, 51.635426], [-0.759964, 51.633555], [-0.756222, 51.631456]]}}, {"type": "Feature", "properties": {"route": "S4", "route_name": "", "route_id": "793465", "agency": "Redline", "agency_id": "OP71", "geometry_source": "GTFS stop sequence"}, "geometry": {"type": "LineString", "coordinates": [[-0.326932441657484, 51.750399901818646], [-0.33466062611003, 51.75416039467849], [-0.337757645605448, 51.75307124920963], [-0.339444720330257, 51.751314690117795], [-0.338642780930323, 51.75066492827893], [-0.335890028683276, 51.74554552560018], [-0.336735590595013, 51.74342639909643], [-0.33388536824413, 51.740580530803776], [-0.333118828706633, 51.73858243384158], [-0.337771493314031, 51.738486479207424], [-0.340362316426191, 51.73892773478219], [-0.343724105797295, 51.740863475442865], [-0.343513275116531, 51.74266788865486], [-0.343158941930016, 51.74364301769266], [-0.342820088563653, 51.74617397283619], [-0.341392636436527, 51.74836585821297], [-0.34054557336147, 51.74973866245827], [-0.339135012882643, 51.75185882322009], [-0.3367734971797, 51.7542262806095]]}}, {"type": "Feature", "properties": {"route": "300", "route_name": "", "route_id": "845052", "agency": "Redline", "agency_id": "OP71", "geometry_source": "GTFS stop sequence"}, "geometry": {"type": "LineString", "coordinates": [[-0.813157, 51.814739], [-0.80845, 51.812785], [-0.805357, 51.810703], [-0.805982, 51.810125], [-0.808726, 51.80893], [-0.809823, 51.80583], [-0.807914, 51.802304], [-0.806089, 51.798932], [-0.805082, 51.798085], [-0.803385, 51.79516], [-0.80173, 51.793241], [-0.796833, 51.788731], [-0.790456, 51.786472], [-0.786915, 51.787685], [-0.781984, 51.78936], [-0.778403, 51.789341], [-0.775516, 51.784591], [-0.772661, 51.782951], [-0.767296, 51.779272], [-0.775645, 51.769904], [-0.790925, 51.762388], [-0.798623, 51.759544], [-0.806948, 51.756491], [-0.808184, 51.753015], [-0.804397, 51.749398], [-0.805353, 51.746108], [-0.81645, 51.738298], [-0.81986, 51.734142], [-0.82317, 51.731037], [-0.828042, 51.727984], [-0.83192, 51.724138], [-0.833117, 51.721515], [-0.836632, 51.717099], [-0.833956, 51.710257], [-0.828861, 51.70804], [-0.817085, 51.698966], [-0.813549, 51.696952], [-0.810309, 51.694716], [-0.807143, 51.691294], [-0.80232, 51.686012], [-0.799302, 51.681431], [-0.792349, 51.677467], [-0.790708, 51.675562], [-0.787928, 51.673519], [-0.784131, 51.670548], [-0.78037, 51.667362], [-0.776281, 51.665126], [-0.773479, 51.664458], [-0.767923, 51.662997], [-0.762199, 51.662406], [-0.751721, 51.661702], [-0.751121, 51.658809], [-0.748851, 51.651493], [-0.750057, 51.640733], [-0.750954, 51.637533], [-0.752752, 51.631775], [-0.753308, 51.63076], [-0.756222, 51.631456]]}}, {"type": "Feature", "properties": {"route": "2", "route_name": "", "route_id": "4136", "agency": "Redline", "agency_id": "OP71", "geometry_source": "GTFS stop sequence"}, "geometry": {"type": "LineString", "coordinates": [[-0.813169, 51.815395], [-0.809707, 51.816853], [-0.807773, 51.826364], [-0.820821, 51.826819], [-0.824938, 51.82865], [-0.834844, 51.826051], [-0.841723, 51.824851], [-0.843124, 51.828533], [-0.824938, 51.82865], [-0.820675, 51.826836], [-0.807614, 51.826327], [-0.815259, 51.814256], [-0.813623, 51.815229]]}}, {"type": "Feature", "properties": {"route": "X20", "route_name": "", "route_id": "54512", "agency": "Redline", "agency_id": "OP71", "geometry_source": "GTFS stop sequence"}, "geometry": {"type": "LineString", "coordinates": [[-0.812807, 51.814825], [-0.815757, 51.815178], [-0.821674, 51.816371], [-0.824564, 51.813479], [-0.82743, 51.811483], [-0.848868, 51.801867], [-0.855301, 51.803818], [-0.866848, 51.803741], [-0.873053, 51.802686], [-0.88236, 51.800482], [-0.892615, 51.795696], [-0.898862, 51.792248], [-0.926183, 51.784157], [-0.923032, 51.778292], [-0.921445, 51.776147], [-0.922674, 51.7732], [-0.928614, 51.773308], [-0.940966, 51.770686], [-0.942589, 51.770728], [-0.965017, 51.762781], [-0.9783, 51.75336], [-0.97813, 51.75018], [-0.97643, 51.74761], [-0.97891, 51.74771], [-0.98181, 51.74928], [-0.98527, 51.7494], [-0.98908, 51.748], [-0.99535, 51.74696], [-1.01892, 51.74766], [-1.06156, 51.74081], [-1.08251, 51.73838], [-1.09003, 51.73853], [-1.09698, 51.73951], [-1.16296, 51.76168], [-1.18352, 51.76236], [-1.19905, 51.76253], [-1.20325, 51.76197], [-1.20646, 51.76135], [-1.21185, 51.75987], [-1.22235, 51.75663], [-1.2264, 51.75547], [-1.23857, 51.7509], [-1.24205, 51.75018], [-1.25138, 51.75264], [-1.25724, 51.752], [-1.25759, 51.74842], [-1.26505, 51.75284], [-1.26198, 51.74995]]}}, {"type": "Feature", "properties": {"route": "11", "route_name": "", "route_id": "4969", "agency": "Redline", "agency_id": "OP71", "geometry_source": "GTFS stop sequence"}, "geometry": {"type": "LineString", "coordinates": [[-0.813169, 51.815395], [-0.815757, 51.815178], [-0.821674, 51.816371], [-0.824564, 51.813479], [-0.824693, 51.810727], [-0.822857, 51.808821], [-0.824932, 51.807124], [-0.826141, 51.806281], [-0.826222, 51.805483], [-0.827018, 51.804412], [-0.825115, 51.802324], [-0.822228, 51.802359], [-0.819431, 51.802825], [-0.817791, 51.803411], [-0.814761, 51.804486], [-0.812428, 51.806036], [-0.812288, 51.808076], [-0.815444, 51.80996], [-0.82046, 51.81118], [-0.823428, 51.810274], [-0.8248, 51.81054], [-0.823355, 51.814751], [-0.818219, 51.817002], [-0.815259, 51.814256], [-0.813169, 51.815395]]}}, {"type": "Feature", "properties": {"route": "14", "route_name": "", "route_id": "4457", "agency": "Redline", "agency_id": "OP71", "geometry_source": "GTFS stop sequence"}, "geometry": {"type": "LineString", "coordinates": [[-0.813169, 51.815395], [-0.809097, 51.815759], [-0.809707, 51.816853], [-0.808838, 51.819541], [-0.805804, 51.820716], [-0.802405, 51.822497], [-0.797033, 51.82318], [-0.793257, 51.822738], [-0.790876, 51.823342], [-0.793728, 51.824144], [-0.795351, 51.825294], [-0.797456, 51.826349], [-0.799064, 51.827013], [-0.802953, 51.82645], [-0.800939, 51.825225], [-0.802143, 51.822504], [-0.805471, 51.820676], [-0.809986, 51.818933], [-0.812238, 51.818812], [-0.816305, 51.819176], [-0.818219, 51.817002], [-0.815259, 51.814256], [-0.813169, 51.815395]]}}, {"type": "Feature", "properties": {"route": "X20", "route_name": "", "route_id": "54512", "agency": "Redline", "agency_id": "OP71", "geometry_source": "GTFS stop sequence"}, "geometry": {"type": "LineString", "coordinates": [[-1.26198, 51.74995], [-1.25802, 51.74847], [-1.25556, 51.75233], [-1.2507, 51.75272], [-1.22501, 51.75593], [-1.22092, 51.75712], [-1.21609, 51.75868], [-1.20974, 51.76055], [-1.20559, 51.76165], [-1.20175, 51.76227], [-1.19906, 51.76263], [-1.18054, 51.76315], [-1.16083, 51.76137], [-1.09698, 51.73951], [-1.08893, 51.73856], [-1.08125, 51.73866], [-1.06147, 51.74098], [-1.01848, 51.7479], [-0.99444, 51.74739], [-0.98818, 51.74833], [-0.98543, 51.74947], [-0.98099, 51.7491], [-0.97837, 51.7475], [-0.9777, 51.74975], [-0.97838, 51.75364], [-0.964897, 51.762942], [-0.942589, 51.770728], [-0.934593, 51.772391], [-0.928984, 51.773626], [-0.922283, 51.773205], [-0.919613, 51.773342], [-0.921546, 51.776175], [-0.923457, 51.778701], [-0.926381, 51.784338], [-0.899546, 51.79212], [-0.892252, 51.796313], [-0.883307, 51.800338], [-0.873996, 51.80265], [-0.863314, 51.804627], [-0.853966, 51.803859], [-0.849418, 51.802466], [-0.832179, 51.80957], [-0.825953, 51.812569], [-0.823355, 51.814751], [-0.818219, 51.817002], [-0.812807, 51.814825]]}}, {"type": "Feature", "properties": {"route": "2", "route_name": "", "route_id": "4136", "agency": "Redline", "agency_id": "OP71", "geometry_source": "GTFS stop sequence"}, "geometry": {"type": "LineString", "coordinates": [[-0.813169, 51.815395], [-0.809097, 51.815759], [-0.809707, 51.816853], [-0.812238, 51.818812], [-0.815422, 51.82075], [-0.813923, 51.823711], [-0.810707, 51.825162], [-0.807773, 51.826364], [-0.811175, 51.827217], [-0.817067, 51.827195], [-0.820821, 51.826819], [-0.822261, 51.828902], [-0.824938, 51.82865], [-0.825985, 51.826898], [-0.829862, 51.826208], [-0.831729, 51.827549], [-0.834844, 51.826051], [-0.837312, 51.825437], [-0.839605, 51.825406], [-0.841723, 51.824851], [-0.844722, 51.825609], [-0.845394, 51.82656], [-0.843124, 51.828533], [-0.839617, 51.830036], [-0.836604, 51.829818], [-0.832498, 51.82922], [-0.82798, 51.829409], [-0.824938, 51.82865], [-0.822794, 51.828494], [-0.820675, 51.826836], [-0.817195, 51.827296], [-0.81165, 51.827375], [-0.807614, 51.826327], [-0.810241, 51.825211], [-0.813869, 51.823558], [-0.815235, 51.820712], [-0.816305, 51.819176], [-0.818219, 51.817002], [-0.815259, 51.814256], [-0.813623, 51.815229]]}}, {"type": "Feature", "properties": {"route": "6", "route_name": "", "route_id": "17993", "agency": "Redline", "agency_id": "OP71", "geometry_source": "GTFS stop sequence"}, "geometry": {"type": "LineString", "coordinates": [[-0.813169, 51.815395], [-0.809097, 51.815759], [-0.809707, 51.816853], [-0.812238, 51.818812], [-0.815422, 51.82075], [-0.813923, 51.823711], [-0.810707, 51.825162], [-0.807773, 51.826364], [-0.804429, 51.827697], [-0.804393, 51.828497], [-0.803485, 51.829387], [-0.802351, 51.829447], [-0.802811, 51.83018], [-0.804293, 51.831751], [-0.805654, 51.831873], [-0.816522, 51.831371], [-0.817933, 51.832356], [-0.818883, 51.833768], [-0.819038, 51.835631], [-0.820912, 51.835012], [-0.825083, 51.833678], [-0.821875, 51.833142], [-0.817687, 51.832354], [-0.816601, 51.831704], [-0.811366, 51.832074], [-0.804163, 51.831732], [-0.802709, 51.830197], [-0.802323, 51.829402], [-0.803515, 51.829342], [-0.804349, 51.828541], [-0.804358, 51.827633], [-0.807614, 51.826327], [-0.810241, 51.825211], [-0.813869, 51.823558], [-0.815235, 51.820712], [-0.816305, 51.819176], [-0.818219, 51.817002], [-0.815259, 51.814256], [-0.813169, 51.815395]]}}, {"type": "Feature", "properties": {"route": "110", "route_name": "", "route_id": "32648", "agency": "Redline", "agency_id": "OP71", "geometry_source": "GTFS stop sequence"}, "geometry": {"type": "LineString", "coordinates": [[-0.812807, 51.814825], [-0.815757, 51.815178], [-0.821674, 51.816371], [-0.824564, 51.813479], [-0.82743, 51.811483], [-0.848868, 51.801867], [-0.855301, 51.803818], [-0.866848, 51.803741], [-0.873053, 51.802686], [-0.88236, 51.800482], [-0.892615, 51.795696], [-0.898862, 51.792248], [-0.930187, 51.792609], [-0.931327, 51.793474], [-0.96145, 51.790012], [-0.98672, 51.777815], [-0.990387, 51.776543], [-0.992618, 51.775294], [-0.997644, 51.777405], [-1.002564, 51.776476], [-0.998352, 51.774201], [-0.996262, 51.772403], [-0.992478, 51.769844], [-0.986542, 51.759866], [-0.9783, 51.75336], [-0.97813, 51.75018], [-0.97643, 51.74761], [-0.97891, 51.74771]]}}, {"type": "Feature", "properties": {"route": "130", "route_name": "", "route_id": "102141", "agency": "Redline", "agency_id": "OP71", "geometry_source": "GTFS stop sequence"}, "geometry": {"type": "LineString", "coordinates": [[-0.756222, 51.631456], [-0.757808, 51.632633], [-0.760111, 51.633494], [-0.764539, 51.634853], [-0.772134, 51.637172], [-0.778584, 51.639127], [-0.785106, 51.641119], [-0.788217, 51.642068], [-0.79431, 51.643911], [-0.796532, 51.645166], [-0.799701, 51.652122], [-0.801808, 51.656649], [-0.811358, 51.666259], [-0.823175, 51.675046], [-0.827309, 51.679637], [-0.828735, 51.68323], [-0.83222, 51.689433], [-0.831313, 51.698802], [-0.834186, 51.71034], [-0.836994, 51.717669], [-0.832982, 51.721685], [-0.83192, 51.724138], [-0.827995, 51.7281], [-0.823078, 51.731225], [-0.819585, 51.734688], [-0.814829, 51.739361], [-0.805782, 51.74577], [-0.804517, 51.748689], [-0.800128, 51.751413], [-0.790693, 51.75263], [-0.784408, 51.755244], [-0.780793, 51.756079], [-0.782394, 51.761176], [-0.783331, 51.764054], [-0.785857, 51.766589], [-0.788938, 51.770046], [-0.789197, 51.774473], [-0.804368, 51.79601], [-0.805082, 51.798085], [-0.80668, 51.799603], [-0.808006, 51.802116], [-0.80997, 51.806875], [-0.808576, 51.809136], [-0.806915, 51.810485], [-0.808104, 51.81217], [-0.815259, 51.814256], [-0.813157, 51.814739]]}}, {"type": "Feature", "properties": {"route": "2", "route_name": "", "route_id": "4136", "agency": "Redline", "agency_id": "OP71", "geometry_source": "GTFS stop sequence"}, "geometry": {"type": "LineString", "coordinates": [[-0.813169, 51.815395], [-0.809097, 51.815759], [-0.809707, 51.816853], [-0.812238, 51.818812], [-0.815422, 51.82075], [-0.813923, 51.823711], [-0.810707, 51.825162], [-0.807773, 51.826364], [-0.811175, 51.827217], [-0.817067, 51.827195], [-0.820821, 51.826819], [-0.822261, 51.828902], [-0.824938, 51.82865], [-0.825985, 51.826898], [-0.829862, 51.826208], [-0.831729, 51.827549], [-0.834844, 51.826051], [-0.837312, 51.825437], [-0.839605, 51.825406], [-0.841723, 51.824851], [-0.844722, 51.825609], [-0.845394, 51.82656], [-0.843124, 51.828533], [-0.839617, 51.830036], [-0.836604, 51.829818], [-0.832498, 51.82922], [-0.82798, 51.829409], [-0.824938, 51.82865], [-0.822794, 51.828494], [-0.820675, 51.826836], [-0.817195, 51.827296], [-0.81165, 51.827375], [-0.807614, 51.826327], [-0.810241, 51.825211], [-0.813869, 51.823558], [-0.815235, 51.820712], [-0.816305, 51.819176], [-0.818219, 51.817002], [-0.815259, 51.814256]]}}, {"type": "Feature", "properties": {"route": "300", "route_name": "", "route_id": "845052", "agency": "Redline", "agency_id": "OP71", "geometry_source": "GTFS stop sequence"}, "geometry": {"type": "LineString", "coordinates": [[-0.756222, 51.631456], [-0.752539, 51.634034], [-0.750778, 51.638169], [-0.75054, 51.641575], [-0.749116, 51.651325], [-0.751354, 51.658767], [-0.75188, 51.661704], [-0.762345, 51.662345], [-0.768527, 51.663129], [-0.773883, 51.66448], [-0.776541, 51.665101], [-0.781576, 51.66822], [-0.784546, 51.670732], [-0.787475, 51.673145], [-0.791118, 51.675889], [-0.793493, 51.677982], [-0.799535, 51.681407], [-0.802706, 51.686187], [-0.8076, 51.691524], [-0.810555, 51.694701], [-0.814564, 51.69743], [-0.817204, 51.698868], [-0.819816, 51.701907], [-0.829365, 51.708143], [-0.834186, 51.71034], [-0.836994, 51.717669], [-0.832982, 51.721685], [-0.83192, 51.724138], [-0.827995, 51.7281], [-0.823078, 51.731225], [-0.819585, 51.734688], [-0.814829, 51.739361], [-0.805782, 51.74577], [-0.804517, 51.748689], [-0.808314, 51.753025], [-0.807254, 51.756413], [-0.798781, 51.759573], [-0.790162, 51.762749], [-0.775795, 51.770077], [-0.767584, 51.77932], [-0.773422, 51.783211], [-0.77746, 51.786122], [-0.786858, 51.787622], [-0.790458, 51.786391], [-0.796884, 51.788435], [-0.800052, 51.791434], [-0.804368, 51.79601], [-0.805082, 51.798085], [-0.80668, 51.799603], [-0.808006, 51.802116], [-0.80997, 51.806875], [-0.808576, 51.809136], [-0.806915, 51.810485], [-0.808104, 51.81217], [-0.815259, 51.814256], [-0.813157, 51.814739]]}}, {"type": "Feature", "properties": {"route": "S1", "route_name": "", "route_id": "819501", "agency": "Redline", "agency_id": "OP71", "geometry_source": "GTFS stop sequence"}, "geometry": {"type": "LineString", "coordinates": [[-0.337517708492663, 51.753292654456565], [-0.337911761008585, 51.752030362000646], [-0.332185443581347, 51.75095113582841], [-0.326885350186374, 51.750498143113774], [-0.32294209870038, 51.75096347687901], [-0.320545710717443, 51.749562477755795], [-0.317179966001462, 51.74891187139343], [-0.314373558617669, 51.745301835627224], [-0.311816258162288, 51.742792330637414], [-0.310504706878045, 51.741451659339354], [-0.306180368699163, 51.742828132838476], [-0.304165764196291, 51.74518196013456], [-0.305943513281886, 51.74567518295403], [-0.308532784788388, 51.74654873293224], [-0.313627770275006, 51.74821353288346], [-0.316315129928598, 51.74840492606975], [-0.318796270125854, 51.74907887484643], [-0.323578537702642, 51.75099054050668], [-0.326932441657484, 51.750399901818646]]}}, {"type": "Feature", "properties": {"route": "6A", "route_name": "", "route_id": "845050", "agency": "Redline", "agency_id": "OP71", "geometry_source": "GTFS stop sequence"}, "geometry": {"type": "LineString", "coordinates": [[-0.813169, 51.815395], [-0.809097, 51.815759], [-0.809707, 51.816853], [-0.812238, 51.818812], [-0.815422, 51.82075], [-0.820912, 51.835012], [-0.804163, 51.831732], [-0.807614, 51.826327], [-0.810241, 51.825211], [-0.813869, 51.823558], [-0.815235, 51.820712], [-0.816305, 51.819176], [-0.818219, 51.817002], [-0.815259, 51.814256], [-0.813169, 51.815395]]}}, {"type": "Feature", "properties": {"route": "110", "route_name": "", "route_id": "32648", "agency": "Redline", "agency_id": "OP71", "geometry_source": "GTFS stop sequence"}, "geometry": {"type": "LineString", "coordinates": [[-0.812807, 51.814825], [-0.815757, 51.815178], [-0.821674, 51.816371], [-0.824564, 51.813479], [-0.82743, 51.811483], [-0.848868, 51.801867], [-0.855301, 51.803818], [-0.866848, 51.803741], [-0.873053, 51.802686], [-0.88236, 51.800482], [-0.892615, 51.795696], [-0.898862, 51.792248], [-0.930187, 51.792609], [-0.931327, 51.793474], [-0.96145, 51.790012], [-0.98672, 51.777815], [-0.990387, 51.776543], [-0.992618, 51.775294], [-0.997644, 51.777405], [-1.002564, 51.776476], [-0.998352, 51.774201], [-0.996262, 51.772403], [-0.992478, 51.769844], [-0.986542, 51.759866], [-0.9783, 51.75336], [-0.97813, 51.75018], [-0.97643, 51.74761], [-0.97891, 51.74771], [-0.98181, 51.74928], [-0.98527, 51.7494], [-0.98908, 51.748], [-0.99535, 51.74696], [-1.03703, 51.756802], [-1.072209, 51.771561], [-1.06054, 51.763277], [-1.059602, 51.76033]]}}, {"type": "Feature", "properties": {"route": "6A", "route_name": "", "route_id": "845050", "agency": "Redline", "agency_id": "OP71", "geometry_source": "GTFS stop sequence"}, "geometry": {"type": "LineString", "coordinates": [[-0.813169, 51.815395], [-0.809097, 51.815759], [-0.809707, 51.816853], [-0.807773, 51.826364], [-0.820912, 51.835012], [-0.815259, 51.814256], [-0.813169, 51.815395]]}}, {"type": "Feature", "properties": {"route": "130", "route_name": "", "route_id": "102141", "agency": "Redline", "agency_id": "OP71", "geometry_source": "GTFS stop sequence"}, "geometry": {"type": "LineString", "coordinates": [[-0.813157, 51.814739], [-0.80845, 51.812785], [-0.805982, 51.810125], [-0.808726, 51.80893], [-0.809823, 51.80583], [-0.807914, 51.802304], [-0.806089, 51.798932], [-0.805082, 51.798085], [-0.803385, 51.79516], [-0.7887, 51.77409], [-0.788772, 51.770314], [-0.78537, 51.766377], [-0.783174, 51.763962], [-0.782278, 51.761184], [-0.780664, 51.756024], [-0.78457, 51.755156], [-0.790013, 51.752623], [-0.800275, 51.751343], [-0.804397, 51.749398], [-0.805353, 51.746108], [-0.81645, 51.738298], [-0.81986, 51.734142], [-0.82317, 51.731037], [-0.828042, 51.727984], [-0.83192, 51.724138], [-0.833117, 51.721515], [-0.836632, 51.717099], [-0.833956, 51.710257], [-0.831344, 51.698182], [-0.831759, 51.688817], [-0.828651, 51.682528], [-0.826838, 51.679372], [-0.822674, 51.674861], [-0.809904, 51.664913], [-0.801537, 51.656502], [-0.799637, 51.652346], [-0.794121, 51.643972], [-0.788516, 51.64226], [-0.785247, 51.641282], [-0.781477, 51.640128], [-0.778409, 51.639215], [-0.777133, 51.638815], [-0.770654, 51.636868], [-0.765997, 51.635426], [-0.759964, 51.633555], [-0.756222, 51.631456]]}}, {"type": "Feature", "properties": {"route": "130M", "route_name": "", "route_id": "101731", "agency": "Redline", "agency_id": "OP71", "geometry_source": "GTFS stop sequence"}, "geometry": {"type": "LineString", "coordinates": [[-0.761964, 51.618497], [-0.756222, 51.631456], [-0.757808, 51.632633], [-0.760111, 51.633494], [-0.764539, 51.634853], [-0.772134, 51.637172], [-0.778584, 51.639127], [-0.785106, 51.641119], [-0.788217, 51.642068], [-0.79431, 51.643911], [-0.796532, 51.645166], [-0.799701, 51.652122], [-0.801808, 51.656649], [-0.811358, 51.666259], [-0.823175, 51.675046], [-0.827309, 51.679637], [-0.828735, 51.68323], [-0.83222, 51.689433], [-0.831313, 51.698802], [-0.834186, 51.71034], [-0.836994, 51.717669], [-0.832982, 51.721685], [-0.83192, 51.724138], [-0.827995, 51.7281], [-0.823078, 51.731225], [-0.819585, 51.734688], [-0.814829, 51.739361], [-0.805782, 51.74577], [-0.804517, 51.748689], [-0.784408, 51.755244], [-0.780793, 51.756079], [-0.782394, 51.761176], [-0.783331, 51.764054], [-0.785857, 51.766589], [-0.788938, 51.770046], [-0.789197, 51.774473], [-0.804368, 51.79601], [-0.805082, 51.798085], [-0.80668, 51.799603], [-0.808006, 51.802116], [-0.80997, 51.806875], [-0.808576, 51.809136], [-0.806915, 51.810485], [-0.808104, 51.81217], [-0.813157, 51.814739]]}}, {"type": "Feature", "properties": {"route": "110", "route_name": "", "route_id": "32648", "agency": "Redline", "agency_id": "OP71", "geometry_source": "GTFS stop sequence"}, "geometry": {"type": "LineString", "coordinates": [[-1.072209, 51.771561], [-1.06054, 51.763277], [-1.059602, 51.76033], [-1.055687, 51.759759], [-1.037029, 51.756865], [-1.033127, 51.760448], [-1.002828, 51.776334], [-0.997498, 51.777431], [-0.998352, 51.774201], [-0.996262, 51.772403], [-0.992478, 51.769844], [-0.986542, 51.759866], [-0.9783, 51.75336], [-0.97813, 51.75018], [-0.97891, 51.74771], [-0.97838, 51.75364], [-0.986644, 51.75984], [-0.993584, 51.770303], [-0.996294, 51.772251], [-0.999145, 51.774424], [-1.002828, 51.776334], [-0.997498, 51.777431], [-0.992895, 51.775216], [-0.991439, 51.776138], [-0.986586, 51.777967], [-0.961657, 51.78987], [-0.93185, 51.793415], [-0.930086, 51.792608], [-0.899546, 51.79212], [-0.892252, 51.796313], [-0.883307, 51.800338], [-0.873996, 51.80265], [-0.863314, 51.804627], [-0.853966, 51.803859], [-0.849418, 51.802466], [-0.832179, 51.80957], [-0.825953, 51.812569], [-0.823355, 51.814751], [-0.818219, 51.817002], [-0.812807, 51.814825]]}}, {"type": "Feature", "properties": {"route": "4", "route_name": "", "route_id": "57426", "agency": "Redline", "agency_id": "OP71", "geometry_source": "GTFS stop sequence"}, "geometry": {"type": "LineString", "coordinates": [[-0.813623, 51.815229], [-0.809097, 51.815759], [-0.809707, 51.816853], [-0.812238, 51.818812], [-0.816563, 51.820411], [-0.818977, 51.821316], [-0.824684, 51.822646], [-0.830315, 51.823848], [-0.834852, 51.826276], [-0.832847, 51.828081], [-0.832516, 51.829094], [-0.8371, 51.829724], [-0.8402, 51.829934], [-0.842995, 51.828478], [-0.848088, 51.830258], [-0.850893, 51.832872], [-0.850025, 51.833924], [-0.853498, 51.837725], [-0.85196, 51.839428], [-0.853016, 51.841866], [-0.855732, 51.840642], [-0.854431, 51.839299], [-0.853248, 51.837858], [-0.853521, 51.835694], [-0.858436, 51.837045], [-0.859313, 51.833907], [-0.858151, 51.832807], [-0.849627, 51.830959], [-0.843124, 51.828533], [-0.839617, 51.830036], [-0.836604, 51.829818], [-0.832498, 51.82922], [-0.832703, 51.828026], [-0.834844, 51.826051], [-0.832736, 51.82452], [-0.829864, 51.823898], [-0.824398, 51.822638], [-0.821036, 51.821912], [-0.81834, 51.821247], [-0.81643, 51.82049], [-0.816305, 51.819176], [-0.818219, 51.817002], [-0.815259, 51.814256], [-0.813623, 51.815229]]}}, {"type": "Feature", "properties": {"route": "110", "route_name": "", "route_id": "32648", "agency": "Redline", "agency_id": "OP71", "geometry_source": "GTFS stop sequence"}, "geometry": {"type": "LineString", "coordinates": [[-0.97891, 51.74771], [-0.97838, 51.75364], [-0.986644, 51.75984], [-0.993584, 51.770303], [-0.996294, 51.772251], [-0.999145, 51.774424], [-1.002828, 51.776334], [-0.997498, 51.777431], [-0.992895, 51.775216], [-0.991439, 51.776138], [-0.986586, 51.777967], [-0.961657, 51.78987], [-0.93185, 51.793415], [-0.930086, 51.792608], [-0.899546, 51.79212], [-0.892252, 51.796313], [-0.883307, 51.800338], [-0.873996, 51.80265], [-0.863314, 51.804627], [-0.853966, 51.803859], [-0.849418, 51.802466], [-0.832179, 51.80957], [-0.825953, 51.812569], [-0.823355, 51.814751], [-0.818219, 51.817002], [-0.812807, 51.814825]]}}, {"type": "Feature", "properties": {"route": "6A", "route_name": "", "route_id": "845050", "agency": "Redline", "agency_id": "OP71", "geometry_source": "GTFS stop sequence"}, "geometry": {"type": "LineString", "coordinates": [[-0.820912, 51.835012], [-0.825083, 51.833678], [-0.821875, 51.833142], [-0.816601, 51.831704], [-0.811366, 51.832074], [-0.804163, 51.831732], [-0.802709, 51.830197], [-0.802323, 51.829402], [-0.803515, 51.829342], [-0.804349, 51.828541], [-0.804358, 51.827633], [-0.814582, 51.826244], [-0.814543, 51.824949], [-0.807614, 51.826327], [-0.810241, 51.825211], [-0.813869, 51.823558], [-0.815235, 51.820712], [-0.816305, 51.819176], [-0.818219, 51.817002], [-0.815259, 51.814256], [-0.813169, 51.815395]]}}, {"type": "Feature", "properties": {"route": "X20", "route_name": "", "route_id": "54512", "agency": "Redline", "agency_id": "OP71", "geometry_source": "GTFS stop sequence"}, "geometry": {"type": "LineString", "coordinates": [[-0.812807, 51.814825], [-0.815757, 51.815178], [-0.821674, 51.816371], [-0.824564, 51.813479], [-0.82743, 51.811483], [-0.848868, 51.801867], [-0.855301, 51.803818], [-0.866848, 51.803741], [-0.873053, 51.802686], [-0.88236, 51.800482], [-0.892615, 51.795696], [-0.898862, 51.792248], [-0.926183, 51.784157], [-0.923032, 51.778292], [-0.921445, 51.776147], [-0.922674, 51.7732], [-0.928614, 51.773308], [-0.940966, 51.770686], [-0.942589, 51.770728], [-0.965017, 51.762781], [-0.9783, 51.75336], [-0.97813, 51.75018], [-0.97643, 51.74761], [-0.97891, 51.74771], [-0.98181, 51.74928], [-0.98527, 51.7494], [-0.98908, 51.748], [-0.99535, 51.74696], [-1.01892, 51.74766], [-1.06156, 51.74081], [-1.08251, 51.73838], [-1.09003, 51.73853], [-1.09698, 51.73951], [-1.16296, 51.76168], [-1.18352, 51.76236], [-1.19905, 51.76253], [-1.20325, 51.76197], [-1.20646, 51.76135], [-1.21185, 51.75987], [-1.22235, 51.75663], [-1.2264, 51.75547], [-1.23857, 51.7509], [-1.24205, 51.75018], [-1.25138, 51.75264], [-1.25724, 51.752], [-1.25759, 51.74842], [-1.26198, 51.74995]]}}, {"type": "Feature", "properties": {"route": "X20", "route_name": "", "route_id": "54512", "agency": "Redline", "agency_id": "OP71", "geometry_source": "GTFS stop sequence"}, "geometry": {"type": "LineString", "coordinates": [[-0.97837, 51.7475], [-0.9777, 51.74975], [-0.97838, 51.75364], [-0.964897, 51.762942], [-0.942589, 51.770728], [-0.934593, 51.772391], [-0.928984, 51.773626], [-0.922283, 51.773205], [-0.919613, 51.773342], [-0.921546, 51.776175], [-0.923457, 51.778701], [-0.926381, 51.784338], [-0.899546, 51.79212], [-0.892252, 51.796313], [-0.883307, 51.800338], [-0.873996, 51.80265], [-0.863314, 51.804627], [-0.853966, 51.803859], [-0.849418, 51.802466], [-0.832179, 51.80957], [-0.825953, 51.812569], [-0.823355, 51.814751], [-0.818219, 51.817002], [-0.812807, 51.814825]]}}, {"type": "Feature", "properties": {"route": "130M", "route_name": "", "route_id": "101731", "agency": "Redline", "agency_id": "OP71", "geometry_source": "GTFS stop sequence"}, "geometry": {"type": "LineString", "coordinates": [[-0.813157, 51.814739], [-0.80845, 51.812785], [-0.805982, 51.810125], [-0.808726, 51.80893], [-0.809823, 51.80583], [-0.807914, 51.802304], [-0.806089, 51.798932], [-0.805082, 51.798085], [-0.803385, 51.79516], [-0.7887, 51.77409], [-0.788772, 51.770314], [-0.78537, 51.766377], [-0.783174, 51.763962], [-0.782278, 51.761184], [-0.780664, 51.756024], [-0.78457, 51.755156], [-0.790013, 51.752623], [-0.800275, 51.751343], [-0.804397, 51.749398], [-0.805353, 51.746108], [-0.81645, 51.738298], [-0.81986, 51.734142], [-0.82317, 51.731037], [-0.828042, 51.727984], [-0.83192, 51.724138], [-0.833117, 51.721515], [-0.836632, 51.717099], [-0.833956, 51.710257], [-0.831344, 51.698182], [-0.831759, 51.688817], [-0.828651, 51.682528], [-0.826838, 51.679372], [-0.822674, 51.674861], [-0.809904, 51.664913], [-0.801537, 51.656502], [-0.799637, 51.652346], [-0.794121, 51.643972], [-0.788516, 51.64226], [-0.785247, 51.641282], [-0.781477, 51.640128], [-0.778409, 51.639215], [-0.777133, 51.638815], [-0.770654, 51.636868], [-0.765997, 51.635426], [-0.759964, 51.633555], [-0.756222, 51.631456], [-0.761964, 51.618497]]}}, {"type": "Feature", "properties": {"route": "K1", "route_name": "", "route_id": "8633510", "agency": "Redline", "agency_id": "OP71", "geometry_source": "GTFS stop sequence"}, "geometry": {"type": "LineString", "coordinates": [[-0.781323, 51.822527], [-0.795364, 51.820582], [-0.801843, 51.819167], [-0.80829, 51.81611], [-0.815757, 51.815178], [-0.815259, 51.814256], [-0.813169, 51.815395]]}}, {"type": "Feature", "properties": {"route": "130", "route_name": "", "route_id": "102141", "agency": "Redline", "agency_id": "OP71", "geometry_source": "GTFS stop sequence"}, "geometry": {"type": "LineString", "coordinates": [[-0.827725, 51.719511], [-0.833117, 51.721515], [-0.836632, 51.717099], [-0.833956, 51.710257], [-0.831344, 51.698182], [-0.831759, 51.688817], [-0.828651, 51.682528], [-0.826838, 51.679372], [-0.822674, 51.674861], [-0.809904, 51.664913], [-0.801537, 51.656502], [-0.799637, 51.652346], [-0.794121, 51.643972], [-0.788516, 51.64226], [-0.785247, 51.641282], [-0.781477, 51.640128], [-0.778409, 51.639215], [-0.777133, 51.638815], [-0.770654, 51.636868], [-0.765997, 51.635426], [-0.759964, 51.633555], [-0.756222, 51.631456]]}}, {"type": "Feature", "properties": {"route": "14", "route_name": "", "route_id": "4457", "agency": "Redline", "agency_id": "OP71", "geometry_source": "GTFS stop sequence"}, "geometry": {"type": "LineString", "coordinates": [[-0.793257, 51.822738], [-0.790876, 51.823342], [-0.793728, 51.824144], [-0.795351, 51.825294], [-0.797456, 51.826349], [-0.799064, 51.827013], [-0.802953, 51.82645], [-0.800939, 51.825225], [-0.802143, 51.822504], [-0.805471, 51.820676], [-0.809986, 51.818933], [-0.812238, 51.818812], [-0.816305, 51.819176], [-0.818219, 51.817002], [-0.815259, 51.814256], [-0.813169, 51.815395]]}}, {"type": "Feature", "properties": {"route": "110", "route_name": "", "route_id": "32648", "agency": "Redline", "agency_id": "OP71", "geometry_source": "GTFS stop sequence"}, "geometry": {"type": "LineString", "coordinates": [[-1.072209, 51.771561], [-1.06054, 51.763277], [-1.059602, 51.76033], [-1.055687, 51.759759], [-1.037029, 51.756865], [-0.99444, 51.74739], [-0.98818, 51.74833], [-0.98099, 51.7491], [-0.97643, 51.74761], [-0.97891, 51.74771], [-0.97838, 51.75364], [-0.986644, 51.75984], [-0.993584, 51.770303], [-0.996294, 51.772251], [-0.999145, 51.774424], [-1.002828, 51.776334], [-0.997498, 51.777431], [-0.992895, 51.775216], [-0.991439, 51.776138], [-0.986586, 51.777967], [-0.961657, 51.78987], [-0.93185, 51.793415], [-0.930086, 51.792608], [-0.899546, 51.79212], [-0.892252, 51.796313], [-0.883307, 51.800338], [-0.873996, 51.80265], [-0.863314, 51.804627], [-0.853966, 51.803859], [-0.849418, 51.802466], [-0.832179, 51.80957], [-0.825953, 51.812569], [-0.823355, 51.814751], [-0.818219, 51.817002], [-0.812807, 51.814825]]}}]}